[{"OBJECT_NAME":"GAOFEN-9 05","OBJECT_ID":"2020-058A","EPOCH":"2026-03-10T00:01:50.876256","MEAN_MOTION":15.30293976,"ECCENTRICITY":0.0010522,"INCLINATION":97.2228,"RA_OF_ASC_NODE":111.963,"ARG_OF_PERICENTER":91.0204,"MEAN_ANOMALY":269.2242,"EPHEMERIS_TYPE":0,"CLASSIFICATION_TYPE":"U","NORAD_CAT_ID":46232,"ELEMENT_SET_NO":999,"REV_AT_EPOCH":30843,"BSTAR":0.00025120304,"MEAN_MOTION_DOT":7.299e-5,"MEAN_MOTION_DDOT":0},{"OBJECT_NAME":"STARLINK-30936","OBJECT_ID":"2023-192D","EPOCH":"2026-03-09T22:25:52.639392","MEAN_MOTION":15.30185639,"ECCENTRICITY":0.00012615,"INCLINATION":53.1613,"RA_OF_ASC_NODE":51.6347,"ARG_OF_PERICENTER":89.1468,"MEAN_ANOMALY":270.9677,"EPHEMERIS_TYPE":0,"CLASSIFICATION_TYPE":"U","NORAD_CAT_ID":58534,"ELEMENT_SET_NO":999,"REV_AT_EPOCH":12616,"BSTAR":2.6179759e-5,"MEAN_MOTION_DOT":4.16e-6,"MEAN_MOTION_DDOT":0}]
